[{"OBJECT_NAME":"NETSAT-1","OBJECT_ID":"2020-068W","EPOCH":"2026-03-09T22:42:38.711232","MEAN_MOTION":15.32042482,"ECCENTRICITY":0.00057337,"INCLINATION":97.8751,"RA_OF_ASC_NODE":63.2583,"ARG_OF_PERICENTER":18.5877,"MEAN_ANOMALY":341.5572,"EPHEMERIS_TYPE":0,"CLASSIFICATION_TYPE":"U","NORAD_CAT_ID":46506,"ELEMENT_SET_NO":999,"REV_AT_EPOCH":30009,"BSTAR":0.00059222329,"MEAN_MOTION_DOT":0.00018269,"MEAN_MOTION_DDOT":0},{"OBJECT_NAME":"STARLINK-34702","OBJECT_ID":"2025-157E","EPOCH":"2026-03-09T22:34:31.401408","MEAN_MOTION":15.302022,"ECCENTRICITY":0.0001674,"INCLINATION":53.1594,"RA_OF_ASC_NODE":344.4031,"ARG_OF_PERICENTER":134.9591,"MEAN_ANOMALY":225.1545,"EPHEMERIS_TYPE":0,"CLASSIFICATION_TYPE":"U","NORAD_CAT_ID":64908,"ELEMENT_SET_NO":999,"REV_AT_EPOCH":3616,"BSTAR":0.0016249545,"MEAN_MOTION_DOT":0.00048083,"MEAN_MOTION_DDOT":0}]
